[
  {
    "OBJECT_NAME": "STARLINK-5268",
    "OBJECT_ID": "22141AM",
    "EPOCH": "2025-11-11T00:00:04.612032",
    "MEAN_MOTION": 15.08819883,
    "ECCENTRICITY": 0.0001604,
    "INCLINATION": 53.2151,
    "RA_OF_ASC_NODE": 166.6689,
    "ARG_OF_PERICENTER": 80.0398,
    "MEAN_ANOMALY": 280.0775,
    "EPHEMERIS_TYPE": 0,
    "CLASSIFICATION_TYPE": "U",
    "NORAD_CAT_ID": 54192,
    "ELEMENT_SET_NO": 999,
    "REV_AT_EPOCH": 16808,
    "BSTAR": 0.0,
    "MEAN_MOTION_DOT": -2.334e-05,
    "MEAN_MOTION_DDOT": 0.0,
    "TLE_LINE1": "1 54192U 22141AM  25315.00005338 -.00002334  00000+0 -12870-3 0  9990",
    "TLE_LINE2": "2 54192  53.2151 166.6689 0001604  80.0398 280.0775 15.08819883168084",
    "COMMENT": "Grouped by shell and plane from TLE"
  },
  {
    "OBJECT_NAME": "STARLINK-5263",
    "OBJECT_ID": "22141AN",
    "EPOCH": "2025-11-10T23:07:05.160288",
    "MEAN_MOTION": 15.08835786,
    "ECCENTRICITY": 0.0001061,
    "INCLINATION": 53.2143,
    "RA_OF_ASC_NODE": 167.1453,
    "ARG_OF_PERICENTER": 88.5464,
    "MEAN_ANOMALY": 271.565,
    "EPHEMERIS_TYPE": 0,
    "CLASSIFICATION_TYPE": "U",
    "NORAD_CAT_ID": 54193,
    "ELEMENT_SET_NO": 999,
    "REV_AT_EPOCH": 16807,
    "BSTAR": 0.0,
    "MEAN_MOTION_DOT": -5.91e-05,
    "MEAN_MOTION_DDOT": 0.0,
    "TLE_LINE1": "1 54193U 22141AN  25314.96325417 -.00005910  00000+0 -35356-3 0  9995",
    "TLE_LINE2": "2 54193  53.2143 167.1453 0001061  88.5464 271.5650 15.08835786168071",
    "COMMENT": "Grouped by shell and plane from TLE"
  },
  {
    "OBJECT_NAME": "STARLINK-5271",
    "OBJECT_ID": "22141AP",
    "EPOCH": "2025-11-11T06:53:25.147104",
    "MEAN_MOTION": 15.08851168,
    "ECCENTRICITY": 0.0001614,
    "INCLINATION": 53.215,
    "RA_OF_ASC_NODE": 165.6092,
    "ARG_OF_PERICENTER": 82.6383,
    "MEAN_ANOMALY": 277.4793,
    "EPHEMERIS_TYPE": 0,
    "CLASSIFICATION_TYPE": "U",
    "NORAD_CAT_ID": 54194,
    "ELEMENT_SET_NO": 999,
    "REV_AT_EPOCH": 16812,
    "BSTAR": 1.8731e-05,
    "MEAN_MOTION_DOT": 1e-07,
    "MEAN_MOTION_DDOT": 0.0,
    "TLE_LINE1": "1 54194U 22141AP  25315.28709661  .00000010  00000+0  18731-4 0  9992",
    "TLE_LINE2": "2 54194  53.2150 165.6092 0001614  82.6383 277.4793 15.08851168168122",
    "COMMENT": "Grouped by shell and plane from TLE"
  },
  {
    "OBJECT_NAME": "STARLINK-5258",
    "OBJECT_ID": "22141AQ",
    "EPOCH": "2025-11-11T00:47:48.101568",
    "MEAN_MOTION": 15.08822256,
    "ECCENTRICITY": 3.95e-05,
    "INCLINATION": 53.2173,
    "RA_OF_ASC_NODE": 166.8718,
    "ARG_OF_PERICENTER": 21.6986,
    "MEAN_ANOMALY": 338.4023,
    "EPHEMERIS_TYPE": 0,
    "CLASSIFICATION_TYPE": "U",
    "NORAD_CAT_ID": 54195,
    "ELEMENT_SET_NO": 999,
    "REV_AT_EPOCH": 16808,
    "BSTAR": 0.00048268000000000003,
    "MEAN_MOTION_DOT": 7.399e-05,
    "MEAN_MOTION_DDOT": 0.0,
    "TLE_LINE1": "1 54195U 22141AQ  25315.03319562  .00007399  00000+0  48268-3 0  9997",
    "TLE_LINE2": "2 54195  53.2173 166.8718 0000395  21.6986 338.4023 15.08822256168088",
    "COMMENT": "Grouped by shell and plane from TLE"
  },
  {
    "OBJECT_NAME": "STARLINK-5237",
    "OBJECT_ID": "22141AR",
    "EPOCH": "2025-11-11T06:42:48.081888",
    "MEAN_MOTION": 15.08844339,
    "ECCENTRICITY": 0.0001346,
    "INCLINATION": 53.2149,
    "RA_OF_ASC_NODE": 165.5668,
    "ARG_OF_PERICENTER": 90.0021,
    "MEAN_ANOMALY": 270.1125,
    "EPHEMERIS_TYPE": 0,
    "CLASSIFICATION_TYPE": "U",
    "NORAD_CAT_ID": 54196,
    "ELEMENT_SET_NO": 999,
    "REV_AT_EPOCH": 16812,
    "BSTAR": 0.00010703,
    "MEAN_MOTION_DOT": 1.416e-05,
    "MEAN_MOTION_DDOT": 0.0,
    "TLE_LINE1": "1 54196U 22141AR  25315.27972317  .00001416  00000+0  10703-3 0  9994",
    "TLE_LINE2": "2 54196  53.2149 165.5668 0001346  90.0021 270.1125 15.08844339168125",
    "COMMENT": "Grouped by shell and plane from TLE"
  },
  {
    "OBJECT_NAME": "STARLINK-5246",
    "OBJECT_ID": "22141AT",
    "EPOCH": "2025-11-11T00:15:57.432960",
    "MEAN_MOTION": 15.08844937,
    "ECCENTRICITY": 0.0001644,
    "INCLINATION": 53.2143,
    "RA_OF_ASC_NODE": 166.7338,
    "ARG_OF_PERICENTER": 88.1607,
    "MEAN_ANOMALY": 271.9573,
    "EPHEMERIS_TYPE": 0,
    "CLASSIFICATION_TYPE": "U",
    "NORAD_CAT_ID": 54198,
    "ELEMENT_SET_NO": 999,
    "REV_AT_EPOCH": 16808,
    "BSTAR": 0.00020357,
    "MEAN_MOTION_DOT": 2.954e-05,
    "MEAN_MOTION_DDOT": 0.0,
    "TLE_LINE1": "1 54198U 22141AT  25315.01108140  .00002954  00000+0  20357-3 0  9997",
    "TLE_LINE2": "2 54198  53.2143 166.7338 0001644  88.1607 271.9573 15.08844937168082",
    "COMMENT": "Grouped by shell and plane from TLE"
  },
  {
    "OBJECT_NAME": "STARLINK-5244",
    "OBJECT_ID": "22141AU",
    "EPOCH": "2025-11-11T06:48:06.356160",
    "MEAN_MOTION": 15.08845252,
    "ECCENTRICITY": 0.0001202,
    "INCLINATION": 53.2167,
    "RA_OF_ASC_NODE": 165.5893,
    "ARG_OF_PERICENTER": 89.9139,
    "MEAN_ANOMALY": 270.1991,
    "EPHEMERIS_TYPE": 0,
    "CLASSIFICATION_TYPE": "U",
    "NORAD_CAT_ID": 54199,
    "ELEMENT_SET_NO": 999,
    "REV_AT_EPOCH": 16812,
    "BSTAR": 0.0,
    "MEAN_MOTION_DOT": -8.6e-06,
    "MEAN_MOTION_DDOT": 0.0,
    "TLE_LINE1": "1 54199U 22141AU  25315.28340690 -.00000860  00000+0 -35978-4 0  9997",
    "TLE_LINE2": "2 54199  53.2167 165.5893 0001202  89.9139 270.1991 15.08845252168122",
    "COMMENT": "Grouped by shell and plane from TLE"
  },
  {
    "OBJECT_NAME": "STARLINK-5250",
    "OBJECT_ID": "22141AV",
    "EPOCH": "2025-11-11T00:05:20.533632",
    "MEAN_MOTION": 15.0884267,
    "ECCENTRICITY": 0.0001239,
    "INCLINATION": 53.216,
    "RA_OF_ASC_NODE": 166.6887,
    "ARG_OF_PERICENTER": 91.5283,
    "MEAN_ANOMALY": 268.5851,
    "EPHEMERIS_TYPE": 0,
    "CLASSIFICATION_TYPE": "U",
    "NORAD_CAT_ID": 54200,
    "ELEMENT_SET_NO": 999,
    "REV_AT_EPOCH": 16808,
    "BSTAR": 0.00013879,
    "MEAN_MOTION_DOT": 1.922e-05,
    "MEAN_MOTION_DDOT": 0.0,
    "TLE_LINE1": "1 54200U 22141AV  25315.00370988  .00001922  00000+0  13879-3 0  9996",
    "TLE_LINE2": "2 54200  53.2160 166.6887 0001239  91.5283 268.5851 15.08842670168084",
    "COMMENT": "Grouped by shell and plane from TLE"
  },
  {
    "OBJECT_NAME": "STARLINK-5199",
    "OBJECT_ID": "22141AW",
    "EPOCH": "2025-11-11T06:58:42.776832",
    "MEAN_MOTION": 15.08849683,
    "ECCENTRICITY": 0.0001738,
    "INCLINATION": 53.2137,
    "RA_OF_ASC_NODE": 165.6287,
    "ARG_OF_PERICENTER": 94.0801,
    "MEAN_ANOMALY": 266.039,
    "EPHEMERIS_TYPE": 0,
    "CLASSIFICATION_TYPE": "U",
    "NORAD_CAT_ID": 54201,
    "ELEMENT_SET_NO": 999,
    "REV_AT_EPOCH": 16812,
    "BSTAR": 0.0,
    "MEAN_MOTION_DOT": -2.758e-05,
    "MEAN_MOTION_DDOT": 0.0,
    "TLE_LINE1": "1 54201U 22141AW  25315.29077288 -.00002758  00000+0 -15523-3 0  9993",
    "TLE_LINE2": "2 54201  53.2137 165.6287 0001738  94.0801 266.0390 15.08849683168127",
    "COMMENT": "Grouped by shell and plane from TLE"
  },
  {
    "OBJECT_NAME": "STARLINK-5205",
    "OBJECT_ID": "22141AX",
    "EPOCH": "2025-11-10T23:54:45.445248",
    "MEAN_MOTION": 15.08820366,
    "ECCENTRICITY": 0.0001662,
    "INCLINATION": 53.2155,
    "RA_OF_ASC_NODE": 166.6436,
    "ARG_OF_PERICENTER": 78.1786,
    "MEAN_ANOMALY": 281.9392,
    "EPHEMERIS_TYPE": 0,
    "CLASSIFICATION_TYPE": "U",
    "NORAD_CAT_ID": 54202,
    "ELEMENT_SET_NO": 999,
    "REV_AT_EPOCH": 16808,
    "BSTAR": 0.00051908,
    "MEAN_MOTION_DOT": 7.978e-05,
    "MEAN_MOTION_DDOT": 0.0,
    "TLE_LINE1": "1 54202U 22141AX  25314.99635932  .00007978  00000+0  51908-3 0  9990",
    "TLE_LINE2": "2 54202  53.2155 166.6436 0001662  78.1786 281.9392 15.08820366168086",
    "COMMENT": "Grouped by shell and plane from TLE"
  },
  {
    "OBJECT_NAME": "STARLINK-5247",
    "OBJECT_ID": "22141AY",
    "EPOCH": "2025-11-11T00:10:38.699904",
    "MEAN_MOTION": 15.08844008,
    "ECCENTRICITY": 0.0001531,
    "INCLINATION": 53.2154,
    "RA_OF_ASC_NODE": 166.7116,
    "ARG_OF_PERICENTER": 89.2873,
    "MEAN_ANOMALY": 270.8294,
    "EPHEMERIS_TYPE": 0,
    "CLASSIFICATION_TYPE": "U",
    "NORAD_CAT_ID": 54203,
    "ELEMENT_SET_NO": 999,
    "REV_AT_EPOCH": 16808,
    "BSTAR": 7.3869e-05,
    "MEAN_MOTION_DOT": 8.88e-06,
    "MEAN_MOTION_DDOT": 0.0,
    "TLE_LINE1": "1 54203U 22141AY  25315.00739236  .00000888  00000+0  73869-4 0  9990",
    "TLE_LINE2": "2 54203  53.2154 166.7116 0001531  89.2873 270.8294 15.08844008168084",
    "COMMENT": "Grouped by shell and plane from TLE"
  },
  {
    "OBJECT_NAME": "STARLINK-5241",
    "OBJECT_ID": "22141AZ",
    "EPOCH": "2025-11-10T23:38:47.456736",
    "MEAN_MOTION": 15.08851895,
    "ECCENTRICITY": 9.28e-05,
    "INCLINATION": 53.2156,
    "RA_OF_ASC_NODE": 166.5747,
    "ARG_OF_PERICENTER": 81.8364,
    "MEAN_ANOMALY": 278.2734,
    "EPHEMERIS_TYPE": 0,
    "CLASSIFICATION_TYPE": "U",
    "NORAD_CAT_ID": 54204,
    "ELEMENT_SET_NO": 999,
    "REV_AT_EPOCH": 16808,
    "BSTAR": 0.00018273,
    "MEAN_MOTION_DOT": 2.623e-05,
    "MEAN_MOTION_DDOT": 0.0,
    "TLE_LINE1": "1 54204U 22141AZ  25314.98527149  .00002623  00000+0  18273-3 0  9991",
    "TLE_LINE2": "2 54204  53.2156 166.5747 0000928  81.8364 278.2734 15.08851895168080",
    "COMMENT": "Grouped by shell and plane from TLE"
  },
  {
    "OBJECT_NAME": "STARLINK-5249",
    "OBJECT_ID": "22141BA",
    "EPOCH": "2025-11-10T23:49:25.700448",
    "MEAN_MOTION": 15.08841163,
    "ECCENTRICITY": 0.0001518,
    "INCLINATION": 53.215,
    "RA_OF_ASC_NODE": 166.621,
    "ARG_OF_PERICENTER": 89.5072,
    "MEAN_ANOMALY": 270.6094,
    "EPHEMERIS_TYPE": 0,
    "CLASSIFICATION_TYPE": "U",
    "NORAD_CAT_ID": 54205,
    "ELEMENT_SET_NO": 999,
    "REV_AT_EPOCH": 16808,
    "BSTAR": 7.9225e-05,
    "MEAN_MOTION_DOT": 9.73e-06,
    "MEAN_MOTION_DDOT": 0.0,
    "TLE_LINE1": "1 54205U 22141BA  25314.99265857  .00000973  00000+0  79225-4 0  9999",
    "TLE_LINE2": "2 54205  53.2150 166.6210 0001518  89.5072 270.6094 15.08841163168080",
    "COMMENT": "Grouped by shell and plane from TLE"
  }
]